[{"OBJECT_NAME":"METEOSAT-11 (MSG-4)","OBJECT_ID":"2015-034A","EPOCH":"2026-03-07T01:45:38.679840","MEAN_MOTION":1.00266939,"ECCENTRICITY":0.0001805,"INCLINATION":2.9444,"RA_OF_ASC_NODE":71.6643,"ARG_OF_PERICENTER":270.8701,"MEAN_ANOMALY":218.0044,"EPHEMERIS_TYPE":0,"CLASSIFICATION_TYPE":"U","NORAD_CAT_ID":40732,"ELEMENT_SET_NO":999,"REV_AT_EPOCH":619,"BSTAR":0,"MEAN_MOTION_DOT":5.9e-7,"MEAN_MOTION_DDOT":0},{"OBJECT_NAME":"ELEKTRO-L 2","OBJECT_ID":"2015-074A","EPOCH":"2026-03-06T20:44:01.145760","MEAN_MOTION":1.00271066,"ECCENTRICITY":0.0003279,"INCLINATION":6.4373,"RA_OF_ASC_NODE":71.783,"ARG_OF_PERICENTER":242.4752,"MEAN_ANOMALY":146.8105,"EPHEMERIS_TYPE":0,"CLASSIFICATION_TYPE":"U","NORAD_CAT_ID":41105,"ELEMENT_SET_NO":999,"REV_AT_EPOCH":3748,"BSTAR":0,"MEAN_MOTION_DOT":-1.19e-6,"MEAN_MOTION_DDOT":0},{"OBJECT_NAME":"INSAT-3DR","OBJECT_ID":"2016-054A","EPOCH":"2026-03-07T02:17:27.348288","MEAN_MOTION":1.0027273,"ECCENTRICITY":0.0013025,"INCLINATION":0.0541,"RA_OF_ASC_NODE":94.8933,"ARG_OF_PERICENTER":187.3158,"MEAN_ANOMALY":350.9448,"EPHEMERIS_TYPE":0,"CLASSIFICATION_TYPE":"U","NORAD_CAT_ID":41752,"ELEMENT_SET_NO":999,"REV_AT_EPOCH":3479,"BSTAR":0,"MEAN_MOTION_DOT":-7.9e-7,"MEAN_MOTION_DDOT":0},{"OBJECT_NAME":"HIMAWARI-9","OBJECT_ID":"2016-064A","EPOCH":"2026-03-06T23:11:07.713600","MEAN_MOTION":1.00271663,"ECCENTRICITY":0.0001265,"INCLINATION":0.0137,"RA_OF_ASC_NODE":164.1829,"ARG_OF_PERICENTER":215.3334,"MEAN_ANOMALY":273.7205,"EPHEMERIS_TYPE":0,"CLASSIFICATION_TYPE":"U","NORAD_CAT_ID":41836,"ELEMENT_SET_NO":999,"REV_AT_EPOCH":3418,"BSTAR":0,"MEAN_MOTION_DOT":-2.78e-6,"MEAN_MOTION_DDOT":0},{"OBJECT_NAME":"GOES 16","OBJECT_ID":"2016-071A","EPOCH":"2026-03-07T03:06:38.820672","MEAN_MOTION":1.00272234,"ECCENTRICITY":0.0002367,"INCLINATION":0.1375,"RA_OF_ASC_NODE":89.0814,"ARG_OF_PERICENTER":223.3484,"MEAN_ANOMALY":154.3671,"EPHEMERIS_TYPE":0,"CLASSIFICATION_TYPE":"U","NORAD_CAT_ID":41866,"ELEMENT_SET_NO":999,"REV_AT_EPOCH":3408,"BSTAR":0,"MEAN_MOTION_DOT":-9.3e-7,"MEAN_MOTION_DDOT":0},{"OBJECT_NAME":"FENGYUN 4A","OBJECT_ID":"2016-077A","EPOCH":"2026-03-06T21:23:29.011200","MEAN_MOTION":1.00278236,"ECCENTRICITY":0.0007258,"INCLINATION":2.0624,"RA_OF_ASC_NODE":81.3878,"ARG_OF_PERICENTER":134.9172,"MEAN_ANOMALY":32.7984,"EPHEMERIS_TYPE":0,"CLASSIFICATION_TYPE":"U","NORAD_CAT_ID":41882,"ELEMENT_SET_NO":999,"REV_AT_EPOCH":3390,"BSTAR":0,"MEAN_MOTION_DOT":-3.59e-6,"MEAN_MOTION_DDOT":0},{"OBJECT_NAME":"CYGFM05","OBJECT_ID":"2016-078A","EPOCH":"2026-03-06T19:20:34.952640","MEAN_MOTION":15.52003159,"ECCENTRICITY":0.0007169,"INCLINATION":34.9572,"RA_OF_ASC_NODE":216.2478,"ARG_OF_PERICENTER":261.244,"MEAN_ANOMALY":98.7471,"EPHEMERIS_TYPE":0,"CLASSIFICATION_TYPE":"U","NORAD_CAT_ID":41884,"ELEMENT_SET_NO":999,"REV_AT_EPOCH":51281,"BSTAR":0.0004478,"MEAN_MOTION_DOT":0.00027887,"MEAN_MOTION_DDOT":0},{"OBJECT_NAME":"CYGFM04","OBJECT_ID":"2016-078B","EPOCH":"2026-03-06T17:35:44.064096","MEAN_MOTION":15.55412371,"ECCENTRICITY":0.0006043,"INCLINATION":34.9329,"RA_OF_ASC_NODE":188.9047,"ARG_OF_PERICENTER":294.0573,"MEAN_ANOMALY":65.9518,"EPHEMERIS_TYPE":0,"CLASSIFICATION_TYPE":"U","NORAD_CAT_ID":41885,"ELEMENT_SET_NO":999,"REV_AT_EPOCH":51300,"BSTAR":0.00045807,"MEAN_MOTION_DOT":0.00032324,"MEAN_MOTION_DDOT":0},{"OBJECT_NAME":"CYGFM02","OBJECT_ID":"2016-078C","EPOCH":"2026-03-06T16:51:55.923840","MEAN_MOTION":15.57685991,"ECCENTRICITY":0.0007044,"INCLINATION":34.9416,"RA_OF_ASC_NODE":186.0711,"ARG_OF_PERICENTER":295.7189,"MEAN_ANOMALY":64.2808,"EPHEMERIS_TYPE":0,"CLASSIFICATION_TYPE":"U","NORAD_CAT_ID":41886,"ELEMENT_SET_NO":999,"REV_AT_EPOCH":51314,"BSTAR":0.00047465,"MEAN_MOTION_DOT":0.00036494,"MEAN_MOTION_DDOT":0},{"OBJECT_NAME":"CYGFM01","OBJECT_ID":"2016-078D","EPOCH":"2026-03-06T20:00:53.641152","MEAN_MOTION":15.52444596,"ECCENTRICITY":0.0006818,"INCLINATION":34.9401,"RA_OF_ASC_NODE":217.8651,"ARG_OF_PERICENTER":253.2404,"MEAN_ANOMALY":106.7571,"EPHEMERIS_TYPE":0,"CLASSIFICATION_TYPE":"U","NORAD_CAT_ID":41887,"ELEMENT_SET_NO":999,"REV_AT_EPOCH":51276,"BSTAR":0.00044456,"MEAN_MOTION_DOT":0.00028129,"MEAN_MOTION_DDOT":0},{"OBJECT_NAME":"CYGFM08","OBJECT_ID":"2016-078E","EPOCH":"2026-03-07T01:46:12.792288","MEAN_MOTION":15.53945479,"ECCENTRICITY":0.0008225,"INCLINATION":34.9436,"RA_OF_ASC_NODE":198.1787,"ARG_OF_PERICENTER":280.1361,"MEAN_ANOMALY":79.8434,"EPHEMERIS_TYPE":0,"CLASSIFICATION_TYPE":"U","NORAD_CAT_ID":41888,"ELEMENT_SET_NO":999,"REV_AT_EPOCH":51304,"BSTAR":0.00043853,"MEAN_MOTION_DOT":0.00029323,"MEAN_MOTION_DDOT":0},{"OBJECT_NAME":"CYGFM07","OBJECT_ID":"2016-078G","EPOCH":"2026-03-07T00:59:44.938176","MEAN_MOTION":15.54638479,"ECCENTRICITY":0.0006596,"INCLINATION":34.9455,"RA_OF_ASC_NODE":186.8552,"ARG_OF_PERICENTER":299.6144,"MEAN_ANOMALY":60.3922,"EPHEMERIS_TYPE":0,"CLASSIFICATION_TYPE":"U","NORAD_CAT_ID":41890,"ELEMENT_SET_NO":999,"REV_AT_EPOCH":51306,"BSTAR":0.00043581,"MEAN_MOTION_DOT":0.00029879,"MEAN_MOTION_DDOT":0},{"OBJECT_NAME":"CYGFM03","OBJECT_ID":"2016-078H","EPOCH":"2026-03-06T18:08:13.706016","MEAN_MOTION":15.54643358,"ECCENTRICITY":0.0005913,"INCLINATION":34.9409,"RA_OF_ASC_NODE":190.7192,"ARG_OF_PERICENTER":283.1532,"MEAN_ANOMALY":76.8532,"EPHEMERIS_TYPE":0,"CLASSIFICATION_TYPE":"U","NORAD_CAT_ID":41891,"ELEMENT_SET_NO":999,"REV_AT_EPOCH":51299,"BSTAR":0.00050518,"MEAN_MOTION_DOT":0.00034663,"MEAN_MOTION_DDOT":0},{"OBJECT_NAME":"FENGYUN 3D","OBJECT_ID":"2017-072A","EPOCH":"2026-03-07T04:04:04.022400","MEAN_MOTION":14.1971518,"ECCENTRICITY":0.0001695,"INCLINATION":99.0031,"RA_OF_ASC_NODE":38.8048,"ARG_OF_PERICENTER":18.5751,"MEAN_ANOMALY":341.5486,"EPHEMERIS_TYPE":0,"CLASSIFICATION_TYPE":"U","NORAD_CAT_ID":43010,"ELEMENT_SET_NO":999,"REV_AT_EPOCH":43051,"BSTAR":0.00019409,"MEAN_MOTION_DOT":3.64e-6,"MEAN_MOTION_DDOT":0},{"OBJECT_NAME":"NOAA 20 (JPSS-1)","OBJECT_ID":"2017-073A","EPOCH":"2026-03-07T01:54:26.410176","MEAN_MOTION":14.19535238,"ECCENTRICITY":0.0001112,"INCLINATION":98.769,"RA_OF_ASC_NODE":6.4926,"ARG_OF_PERICENTER":140.9934,"MEAN_ANOMALY":219.1323,"EPHEMERIS_TYPE":0,"CLASSIFICATION_TYPE":"U","NORAD_CAT_ID":43013,"ELEMENT_SET_NO":999,"REV_AT_EPOCH":42998,"BSTAR":8.0523e-5,"MEAN_MOTION_DOT":1.26e-6,"MEAN_MOTION_DDOT":0},{"OBJECT_NAME":"GOES 17","OBJECT_ID":"2018-022A","EPOCH":"2026-03-07T02:58:38.621568","MEAN_MOTION":1.0027012,"ECCENTRICITY":0.0002093,"INCLINATION":0.6749,"RA_OF_ASC_NODE":87.4941,"ARG_OF_PERICENTER":226.3837,"MEAN_ANOMALY":166.0912,"EPHEMERIS_TYPE":0,"CLASSIFICATION_TYPE":"U","NORAD_CAT_ID":43226,"ELEMENT_SET_NO":999,"REV_AT_EPOCH":2940,"BSTAR":0,"MEAN_MOTION_DOT":-1.84e-6,"MEAN_MOTION_DDOT":0},{"OBJECT_NAME":"FENGYUN 2H","OBJECT_ID":"2018-050A","EPOCH":"2026-03-07T02:18:49.716864","MEAN_MOTION":1.00272782,"ECCENTRICITY":0.0001635,"INCLINATION":2.7675,"RA_OF_ASC_NODE":80.3281,"ARG_OF_PERICENTER":174.8713,"MEAN_ANOMALY":23.3911,"EPHEMERIS_TYPE":0,"CLASSIFICATION_TYPE":"U","NORAD_CAT_ID":43491,"ELEMENT_SET_NO":999,"REV_AT_EPOCH":2841,"BSTAR":0,"MEAN_MOTION_DOT":-1.29e-6,"MEAN_MOTION_DDOT":0}]
