METEOSAT-11 (MSG-4)     
1 40732U 15034A   26066.07336435  .00000059  00000+0  00000+0 0  9992
2 40732   2.9444  71.6643 0001805 270.8701 218.0044  1.00266939  6198
ELEKTRO-L 2             
1 41105U 15074A   26065.86390215 -.00000119  00000+0  00000+0 0  9991
2 41105   6.4373  71.7830 0003279 242.4752 146.8105  1.00271066 37489
INSAT-3DR               
1 41752U 16054A   26066.09545542 -.00000079  00000+0  00000+0 0  9994
2 41752   0.0541  94.8933 0013025 187.3158 350.9448  1.00272730 34799
HIMAWARI-9              
1 41836U 16064A   26065.96606150 -.00000278  00000+0  00000+0 0  9997
2 41836   0.0137 164.1829 0001265 215.3334 273.7205  1.00271663 34189
GOES 16                 
1 41866U 16071A   26066.12961598 -.00000093  00000+0  00000+0 0  9992
2 41866   0.1375  89.0814 0002367 223.3484 154.3671  1.00272234 34080
FENGYUN 4A              
1 41882U 16077A   26065.89130800 -.00000359  00000+0  00000+0 0  9998
2 41882   2.0624  81.3878 0007258 134.9172  32.7984  1.00278236 33900
CYGFM05                 
1 41884U 16078A   26065.80596010  .00027887  00000+0  44780-3 0  9992
2 41884  34.9572 216.2478 0007169 261.2440  98.7471 15.52003159512813
CYGFM04                 
1 41885U 16078B   26065.73314889  .00032324  00000+0  45807-3 0  9990
2 41885  34.9329 188.9047 0006043 294.0573  65.9518 15.55412371513005
CYGFM02                 
1 41886U 16078C   26065.70273060  .00036494  00000+0  47465-3 0  9997
2 41886  34.9416 186.0711 0007044 295.7189  64.2808 15.57685991513144
CYGFM01                 
1 41887U 16078D   26065.83395418  .00028129  00000+0  44456-3 0  9997
2 41887  34.9401 217.8651 0006818 253.2404 106.7571 15.52444596512767
CYGFM08                 
1 41888U 16078E   26066.07375917  .00029323  00000+0  43853-3 0  9994
2 41888  34.9436 198.1787 0008225 280.1361  79.8434 15.53945479513049
CYGFM07                 
1 41890U 16078G   26066.04149234  .00029879  00000+0  43581-3 0  9999
2 41890  34.9455 186.8552 0006596 299.6144  60.3922 15.54638479513069
CYGFM03                 
1 41891U 16078H   26065.75571419  .00034663  00000+0  50518-3 0  9996
2 41891  34.9409 190.7192 0005913 283.1532  76.8532 15.54643358512996
FENGYUN 3D              
1 43010U 17072A   26066.16949100  .00000364  00000+0  19409-3 0  9993
2 43010  99.0031  38.8048 0001695  18.5751 341.5486 14.19715180430512
NOAA 20 (JPSS-1)        
1 43013U 17073A   26066.07947234  .00000126  00000+0  80523-4 0  9995
2 43013  98.7690   6.4926 0001112 140.9934 219.1323 14.19535238429988
GOES 17                 
1 43226U 18022A   26066.12405812 -.00000184  00000+0  00000+0 0  9995
2 43226   0.6749  87.4941 0002093 226.3837 166.0912  1.00270120 29406
FENGYUN 2H              
1 43491U 18050A   26066.09640876 -.00000129  00000+0  00000+0 0  9996
2 43491   2.7675  80.3281 0001635 174.8713  23.3911  1.00272782 28411
